NORAD_CAT_ID,OBJECT_NAME,OBJECT_TYPE,EPOCH,MEAN_MOTION,ECCENTRICITY,INCLINATION,RA_OF_ASC_NODE,ARG_OF_PERICENTER,MEAN_ANOMALY,BSTAR,MEAN_MOTION_DOT,MEAN_MOTION_DDOT,TLE_LINE0,TLE_LINE1,TLE_LINE2,SEMIMAJOR_AXIS,PERIOD,APOGEE,PERIGEE,DECAYED
49416.0,STARLINK-3133,PAYLOAD,2022-11-17 19:41:34,15.08843633,0.0002297,53.217,251.4527,31.7593,328.3537,-8.148099999999999e-06,-4.18e-06,0.0,0 STARLINK-3133,1 49416U 21104J   22321.82053992 -.00000418  00000-0 -81481-5 0  9992,2 49416  53.2170 251.4527 0002297  31.7593 328.3537 15.08843633 56281,6917.869000000002,95.437,541.323,538.145,0.0
49416.0,STARLINK-3133,PAYLOAD,2022-11-18 02:03:07,15.08847998,0.0002345,53.2178,250.2632,31.5523,328.5609,3.6233e-05,2.88e-06,0.0,0 STARLINK-3133,1 49416U 21104J   22322.08549789  .00000288  00000-0  36233-4 0  9992,2 49416  53.2178 250.2632 0002345  31.5523 328.5609 15.08847998 56323,6917.856,95.437,541.3430000000002,538.099,0.0
49416.0,STARLINK-3133,PAYLOAD,2022-11-18 14:46:11,15.08854323,0.0002394,53.2165,247.8846,33.2781,326.8361,0.00014559,2.03e-05,0.0,0 STARLINK-3133,1 49416U 21104J   22322.61541129  .00002030  00000-0  14559-3 0  9994,2 49416  53.2165 247.8846 0002394  33.2781 326.8361 15.08854323 57492,6917.837,95.437,541.3580000000002,538.045,0.0
49416.0,STARLINK-3133,PAYLOAD,2022-11-18 19:32:21,15.08850157,0.0002463,53.2165,246.9927,34.1814,325.9336,8.7402e-05,1.103e-05,0.0,0 STARLINK-3133,1 49416U 21104J   22322.81413229  .00001103  00000-0  87402-4 0  9993,2 49416  53.2165 246.9927 0002463  34.1814 325.9336 15.08850157 56432,6917.849,95.437,541.418,538.01,0.0
49416.0,STARLINK-3133,PAYLOAD,2022-11-19 01:53:53,15.08848122,0.0002443,53.2167,245.803,32.3379,327.7763,5.997100000000001e-05,6.66e-06,0.0,0 STARLINK-3133,1 49416U 21104J   22323.07909232  .00000666  00000-0  59971-4 0  9999,2 49416  53.2167 245.8030 0002443  32.3379 327.7763 15.08848122 57569,6917.856,95.437,541.411,538.031,0.0
49416.0,STARLINK-3133,PAYLOAD,2022-11-19 05:04:39,15.08849251,0.0002455,53.2166,245.208,34.3182,325.7968,0.00017736,2.536e-05,0.0,0 STARLINK-3133,1 49416U 21104J   22323.21157230  .00002536  00000-0  17736-3 0  9998,2 49416  53.2166 245.2080 0002455  34.3182 325.7968 15.08849251 56494,6917.852,95.437,541.415,538.019,0.0
49416.0,STARLINK-3133,PAYLOAD,2022-11-19 19:23:07,15.08849223,0.0002603,53.2164,242.5319,30.4595,329.6548,4.387300000000001e-05,4.1e-06,0.0,0 STARLINK-3133,1 49416U 21104J   22323.80772716  .00000410  00000-0  43873-4 0  9996,2 49416  53.2164 242.5319 0002603  30.4595 329.6548 15.08849223 56583,6917.852,95.437,541.518,537.9159999999998,0.0
49416.0,STARLINK-3133,PAYLOAD,2022-11-20 04:55:26,15.08842171,0.0002442,53.2166,240.748,34.9356,325.1796,2.9902e-05,1.88e-06,0.0,0 STARLINK-3133,1 49416U 21104J   22324.20516995  .00000188  00000-0  29902-4 0  9995,2 49416  53.2166 240.7480 0002442  34.9356 325.1796 15.08842171 57738,6917.874,95.437,541.428,538.049,0.0
49416.0,STARLINK-3133,PAYLOAD,2022-11-20 20:49:19,15.0882655,0.0002408,53.2177,237.7747,36.8629,323.2529,-8.5092e-06,-4.24e-06,0.0,0 STARLINK-3133,1 49416U 21104J   22324.86758303 -.00000424  00000-0 -85092-5 0  9996,2 49416  53.2177 237.7747 0002408  36.8629 323.2529 15.08826550 57835,6917.922,95.438,541.452,538.121,0.0
49416.0,STARLINK-3133,PAYLOAD,2022-11-21 01:35:28,15.08827952,0.0002454,53.2173,236.8825,35.1517,324.9636,-9.737e-06,-4.43e-06,0.0,0 STARLINK-3133,1 49416U 21104J   22325.06630349 -.00000443  00000-0 -97370-5 0  9991,2 49416  53.2173 236.8825 0002454  35.1517 324.9636 15.08827952 56773,6917.917,95.438,541.48,538.085,0.0
49416.0,STARLINK-3133,PAYLOAD,2022-11-21 17:29:19,15.08843764,0.0002512,53.2176,233.9086,35.1918,324.9239,2.9801e-05,1.86e-06,0.0,0 STARLINK-3133,1 49416U 21104J   22325.72869350  .00000186  00000-0  29801-4 0  9995,2 49416  53.2176 233.9086 0002512  35.1918 324.9239 15.08843764 57963,6917.869000000002,95.437,541.472,537.996,0.0
49416.0,STARLINK-3133,PAYLOAD,2022-11-21 19:04:42,15.08841122,0.0002495,53.2174,233.6111,36.1841,323.932,8.673100000000001e-05,1.092e-05,0.0,0 STARLINK-3133,1 49416U 21104J   22325.79493395  .00001092  00000-0  86731-4 0  9996,2 49416  53.2174 233.6111 0002495  36.1841 323.9320 15.08841122 56889,6917.877,95.437,541.4680000000002,538.016,0.0
49416.0,STARLINK-3133,PAYLOAD,2022-11-22 03:01:37,15.0885038,0.0002474,53.2175,232.1242,37.9481,322.1685,0.00017667,2.525e-05,0.0,0 STARLINK-3133,1 49416U 21104J   22326.12612686  .00002525  00000-0  17667-3 0  9993,2 49416  53.2175 232.1242 0002474  37.9481 322.1685 15.08850380 58024,6917.849,95.437,541.425,538.002,0.0
49416.0,STARLINK-3133,PAYLOAD,2022-11-22 10:58:33,15.0883633,0.0002725,53.2186,230.6367,44.69300000000001,315.4282,0.00010485,1.3800000000000008e-05,0.0,0 STARLINK-3133,1 49416U 21104J   22326.45733716  .00001380  00000-0  10485-3 0  9996,2 49416  53.2186 230.6367 0002725  44.6930 315.4282 15.08836330 56980,6917.892,95.438,541.6419999999998,537.871,0.0
49416.0,STARLINK-3133,PAYLOAD,2022-11-23 10:49:21,15.08837451,0.0002459,53.217,226.1772,37.0574,323.0588,7.6628e-05,9.31e-06,0.0,0 STARLINK-3133,1 49416U 21104J   22327.45093825  .00000931  00000-0  76628-4 0  9990,2 49416  53.2170 226.1772 0002459  37.0574 323.0588 15.08837451 57134,6917.888000000001,95.438,541.4540000000002,538.052,0.0
49416.0,STARLINK-3133,PAYLOAD,2022-11-23 17:10:53,15.0884668,0.0002597,53.2182,224.9885,35.3204,324.796,2.0712e-05,4.1e-07,0.0,0 STARLINK-3133,1 49416U 21104J   22327.71589554  .00000041  00000-0  20712-4 0  9993,2 49416  53.2182 224.9885 0002597  35.3204 324.7960 15.08846680 58263,6917.86,95.437,541.5219999999998,537.928,0.0
49416.0,STARLINK-3133,PAYLOAD,2022-11-24 02:43:13,15.08835705,0.0002566,53.2177,223.2029,39.8565,320.2616,-4.7564e-05,-1.045e-05,0.0,0 STARLINK-3133,1 49416U 21104J   22328.11334590 -.00001045  00000-0 -47564-4 0  9997,2 49416  53.2177 223.2029 0002566  39.8565 320.2616 15.08835705 58326,6917.894,95.438,541.534,537.9830000000002,0.0
49416.0,STARLINK-3133,PAYLOAD,2022-11-24 10:40:08,15.08838514,0.0002661,53.218,221.7161,39.2966,320.8219,-1.3473e-05,-5.03e-06,0.0,0 STARLINK-3133,1 49416U 21104J   22328.44454455 -.00000503  00000-0 -13473-4 0  9996,2 49416  53.2180 221.7161 0002661  39.2966 320.8219 15.08838514 57285,6917.885,95.438,541.591,537.909,0.0
49416.0,STARLINK-3133,PAYLOAD,2022-11-25 02:33:59,15.0884017,0.0002575,53.2174,218.7426,38.5301,321.5875,0.00013307,1.83e-05,0.0,0 STARLINK-3133,1 49416U 21104J   22329.10694090  .00001830  00000-0  13307-3 0  9998,2 49416  53.2174 218.7426 0002575  38.5301 321.5875 15.08840170 58476,6917.88,95.438,541.526,537.964,0.0
49416.0,STARLINK-3133,PAYLOAD,2022-11-25 20:03:14,15.08842759,0.0002624,53.217,215.4721,37.9576,322.16,0.00018328,2.63e-05,0.0,0 STARLINK-3133,1 49416U 21104J   22329.83557945  .00002630  00000-0  18328-3 0  9992,2 49416  53.2170 215.4721 0002624  37.9576 322.1600 15.08842759 57495,6917.871999999999,95.437,541.552,537.922,0.0
49416.0,STARLINK-3133,PAYLOAD,2022-11-25 23:14:00,15.08841359,0.0002613,53.217,214.8773,38.3787,321.7391,0.00016712,2.372e-05,0.0,0 STARLINK-3133,1 49416U 21104J   22329.96806107  .00002372  00000-0  16712-3 0  9991,2 49416  53.2170 214.8773 0002613  38.3787 321.7391 15.08841359 57512,6917.876,95.437,541.549,537.934,0.0
49416.0,STARLINK-3133,PAYLOAD,2022-11-26 19:54:00,15.0885085,0.0002681,53.217,211.0109,41.7898,318.3299,0.00014249,1.981e-05,0.0,0 STARLINK-3133,1 49416U 21104J   22330.82917273  .00001981  00000-0  14249-3 0  9993,2 49416  53.2170 211.0109 0002681  41.7898 318.3299 15.08850850 57649,6917.847,95.437,541.567,537.8580000000002,0.0
49416.0,STARLINK-3133,PAYLOAD,2022-11-26 23:04:46,15.08849361,0.0002682,53.2175,210.416,40.219,319.9,0.00010222,1.339e-05,0.0,0 STARLINK-3133,1 49416U 21104J   22330.96165363  .00001339  00000-0  10222-3 0  9997,2 49416  53.2175 210.4160 0002682  40.2190 319.9000 15.08849361 58759,6917.852,95.437,541.572,537.861,0.0
49416.0,STARLINK-3133,PAYLOAD,2022-11-27 08:37:06,15.08831948,0.0002715,53.2174,208.6322,38.8671,321.2516,0.00012838,1.755e-05,0.0,0 STARLINK-3133,1 49416U 21104J   22331.35910363  .00001755  00000-0  12838-3 0  9996,2 49416  53.2174 208.6322 0002715  38.8671 321.2516 15.08831948 58818,6917.905,95.438,541.648,537.8919999999998,0.0
49416.0,STARLINK-3133,PAYLOAD,2022-11-27 18:09:25,15.08836069,0.0002676,53.2175,206.8479,36.915,323.2026,-4.369e-05,-9.84e-06,0.0,0 STARLINK-3133,1 49416U 21104J   22331.75654357 -.00000984  00000-0 -43690-4 0  9994,2 49416  53.2175 206.8479 0002676  36.9150 323.2026 15.08836069 57781,6917.892,95.438,541.609,537.906,0.0
49416.0,STARLINK-3133,PAYLOAD,2022-11-28 02:06:20,15.08839755,0.0002681,53.2174,205.3616,37.2539,322.8639,-1.5861e-05,-5.41e-06,0.0,0 STARLINK-3133,1 49416U 21104J   22332.08774010 -.00000541  00000-0 -15861-4 0  9998,2 49416  53.2174 205.3616 0002681  37.2539 322.8639 15.08839755 57834,6917.880999999999,95.438,541.601,537.891,0.0
49416.0,STARLINK-3133,PAYLOAD,2022-11-29 00:21:45,15.08832883,0.0002698,53.217,201.199,40.0249,320.0942,-2.4117e-07,-2.92e-06,0.0,0 STARLINK-3133,1 49416U 21104J   22333.01510466 -.00000292  00000-0 -24117-6 0  9994,2 49416  53.2170 201.1990 0002698  40.0249 320.0942 15.08832883 59066,6917.901999999999,95.438,541.634,537.901,0.0
49416.0,STARLINK-3133,PAYLOAD,2022-11-29 08:18:40,15.08834362,0.0002723,53.2173,199.7122,39.9485,320.1708,3.1035e-05,2.05e-06,0.0,0 STARLINK-3133,1 49416U 21104J   22333.34630436  .00000205  00000-0  31035-4 0  9997,2 49416  53.2173 199.7122 0002723  39.9485 320.1708 15.08834362 58026,6917.898,95.438,541.646,537.879,0.0
49416.0,STARLINK-3133,PAYLOAD,2022-11-30 00:12:31,15.08839347,0.0002678,53.2172,196.7376,40.2918,319.8273,9.0264e-05,1.148e-05,0.0,0 STARLINK-3133,1 49416U 21104J   22334.00870171  .00001148  00000-0  90264-4 0  9999,2 49416  53.2172 196.7376 0002678  40.2918 319.8273 15.08839347 59210,6917.882,95.438,541.6,537.895,0.0
